#aV2020 11  3  0  0  0.00000000     288 DD+AD WGS84 FIT  NGA
## 2130 172800.00000000   300.00000000 59156 0.0000000000000
+   31     1  2  3  4  5  6  7  8  9 10 11 12 13 15 16 17 18
+         19 20 21 22 23 24 25 26 27 28 29 30 31 32  0  0  0
+          0  0  0  0  0  0  0  0  0  0  0  0  0  0  0  0  0
+          0  0  0  0  0  0  0  0  0  0  0  0  0  0  0  0  0
+          0  0  0  0  0  0  0  0  0  0  0  0  0  0  0  0  0
++         2  2  2  2  2  2  2  2  2  2  2  2  2  2  2  2  2
++         2  2  2  2  2  2  2  2  2  2  2  2  2  2  0  0  0
++         0  0  0  0  0  0  0  0  0  0  0  0  0  0  0  0  0
++         0  0  0  0  0  0  0  0  0  0  0  0  0  0  0  0  0
++         0  0  0  0  0  0  0  0  0  0  0  0  0  0  0  0  0
%c cc cc ccc ccc cccc cccc cccc cccc ccccc ccccc ccccc ccccc
%c cc cc ccc ccc cccc cccc cccc cccc ccccc ccccc ccccc ccccc
%f  0.0000000  0.000000000  0.00000000000  0.000000000000000
%f  0.0000000  0.000000000  0.00000000000  0.000000000000000
%i    0    0    0    0      0      0      0      0         0
%i    0    0    0    0      0      0      0      0         0
/*      NGA, ST. LOUIS,MO.                                  
/*   EPHEMERIS COMPUTED FROM 2 DAYS OF DATA                 
/*   EPOCHA v5 SMOOTHER                                     
/*   G1762 IERS2010 SATAF SATAPC                            
*  2020 11  3 12 25  0.00000000
P  1  12198.995449  13617.251359 -19623.895733    810.920515                    
V  1 -24251.074552   -240.144468 -15110.257217     -0.032215                    
P  2  10610.075031 -14509.805192  20196.009533   -537.877528                    
V  2  24264.557494    112.604151 -13110.752482     -0.047949                    
P  3  12977.909233  23221.157113    765.342159   -343.647403                    
V  3  -1745.326268   2140.534319 -31802.761691     -0.101328                    
P  4   4957.050041  17231.188188  19584.065002   -151.738176                    
V  4 -14894.159125  19964.913981 -13839.808688     -0.037124                    
P  5   1614.941436 -20565.933931  16472.724739    -24.972508                    
V  5  12493.332803  17381.845126  20467.664067     -0.009209                    
P  6  23665.691568  -6187.366020  10451.937174      0.681192                    
V  6  13076.087994   2292.075723 -28367.429609     -0.018914                    
P  7  24821.638522   6711.658798   7922.314488   -406.766303                    
V  7  -9597.495031   1991.418208  29130.030977     -0.077892                    
P  8  -2849.413163  22608.931671 -13401.285379    -53.767706                    
V  8 -10729.243061  13534.997109  25355.468790     -0.013689                    
P  9  14331.819357   5852.742414  21520.252572   -308.790269                    
V  9 -13935.359289  23711.777559   2806.223550     -0.049639                    
P 10 -16608.298555   -762.812907 -20680.086549   -495.642151                    
V 10 -11835.264966 -23593.698726  10076.303548     -0.092622                    
P 11   2069.290527  16872.340194 -20923.737435   -118.980058                    
V 11 -23461.458879  10439.025847   5871.306537      0.105687                    
P 12  -9766.207410 -24744.370181  -1701.390645     45.375610                    
V 12   2761.048093    808.575629 -31894.816269     -0.051283                    
P 13  12098.897692 -22513.764780  -7136.248917     61.154430                    
V 13   7597.032850  -5289.834351  30238.398099      0.038342                    
P 15   -797.730337 -22580.189871 -14014.612634   -192.544208                    
V 15  10306.173273 -14411.884374  23583.174344      0.026031                    
P 16  -2949.586596  20663.761988  15926.536909   -231.306204                    
V 16  -9890.458801 -18381.924486  22158.470966     -0.052536                    
P 17  19317.884640 -12158.913682 -13116.774772    348.840816                    
V 17  -8529.687563  15218.025292 -25854.643219      0.052456                    
P 18 -25252.313098  -5656.339441   6098.425250    316.414440                    
V 18   7869.982931  -2065.413923  30570.526994      0.052315                    
P 19  19519.276411 -16093.214909  -8245.030374    -83.227183                    
V 19  -4612.701596   9179.552166 -29941.547715      0.050487                    
P 20 -20272.884669 -11267.290338 -13244.490543    526.165637                    
V 20  -7663.536771 -15027.866817  24394.138311     -0.001366                    
P 21   -740.808779  15005.200505 -21169.545235     64.455357                    
V 21 -28652.704571    709.729924   1787.699407      0.038977                    
P 22   9357.236808  23844.237040  -7125.110030   -735.034291                    
V 22  -7969.759623  -5891.445462 -29222.390756      0.050766                    
P 23 -18622.916566 -10970.399082 -15483.512832     95.463286                    
V 23  -7962.963685 -18008.102778  22356.601041      0.052217                    
P 24  -8814.022454 -14823.348527 -20504.958072      6.928773                    
V 24  25510.474350  -1686.065934  -9465.555424     -0.005507                    
P 25 -17022.121903 -18237.308271   9254.923398     15.865066                    
V 25  -3598.616523 -11689.934146 -28642.140769      0.063419                    
P 26 -11289.821598  11145.222359  21242.233006    305.798274                    
V 26 -14217.142536 -23130.331674   4814.551445      0.061369                    
P 27 -11982.967920  23296.948592  -3175.370902     -5.393865                    
V 27  -4218.990921   1948.582909  32005.658249     -0.084502                    
P 28  15450.081089     52.854383 -20999.911225    660.027408                    
V 28  10179.132568  26118.721625   7515.654305     -0.045476                    
P 29 -11758.935782  -8765.251039  22107.185552   -228.890266                    
V 29  16539.459953 -22701.808643   -248.279975     -0.077767                    
P 30  26599.579056    230.186286  -1991.704790   -329.049458                    
V 30   2364.025834   3491.593628  30970.552112     -0.067058                    
P 31 -22763.999605   7161.999999  12077.185698    -79.075251                    
V 31 -15112.944569  -3022.616298 -26103.096481     -0.024106                    
P 32 -18929.997777  12361.015359 -13723.235277    364.014470                    
V 32   7167.497017 -16302.172689 -24571.117874      0.035670                    
EOF
